{"type": "FeatureCollection", "features": [ {"type": "Feature", "properties": {"norad_id": 34077, "name": "IRIDIUM 33 DEB", "group": "iridium-33-debris", "lat": 46.2900283364911, "lon": -134.07887132052915, "alt_km": 675.533311234105, "timestamp": "2025-12-16T19:34:24.652966+00:00", "meta": {"OBJECT_NAME": "IRIDIUM 33 DEB", "OBJECT_ID": "1997-051CL", "EPOCH": "2025-12-15T22:27:47.585088", "MEAN_MOTION": 14.64874946, "ECCENTRICITY": 0.00098438, "INCLINATION": 86.3861, "RA_OF_ASC_NODE": 50.0992, "ARG_OF_PERICENTER": 29.5748, "MEAN_ANOMALY": 148.2432, "EPHEMERIS_TYPE": 0, "CLASSIFICATION_TYPE": "U", "NORAD_CAT_ID": 34077, "ELEMENT_SET_NO": 999, "REV_AT_EPOCH": 88379, "BSTAR": 0.00070458138, "MEAN_MOTION_DOT": 3.788e-05, "MEAN_MOTION_DDOT": 0}, "tle": {"line1": "1 34077U 97051CL  25349.93596742  .00003788  00000+0  70458-3 0  9993", "line2": "2 34077  86.3861  50.0992 0009843  29.5748 148.2432 14.64874946883791"}}, "geometry": {"type": "Point", "coordinates": [-134.07887132052915, 46.2900283364911]}}, {"type": "Feature", "properties": {"norad_id": 34079, "name": "IRIDIUM 33 DEB", "group": "iridium-33-debris", "lat": 39.34465834479423, "lon": 9.78596003618725, "alt_km": 612.402245790392, "timestamp": "2025-12-16T19:34:24.652977+00:00", "meta": {"OBJECT_NAME": "IRIDIUM 33 DEB", "OBJECT_ID": "1997-051CN", "EPOCH": "2025-12-15T22:33:58.629888", "MEAN_MOTION": 14.8361528, "ECCENTRICITY": 0.00052431, "INCLINATION": 86.3777, "RA_OF_ASC_NODE": 7.2071, "ARG_OF_PERICENTER": 357.5343, "MEAN_ANOMALY": 50.0154, "EPHEMERIS_TYPE": 0, "CLASSIFICATION_TYPE": "U", "NORAD_CAT_ID": 34079, "ELEMENT_SET_NO": 999, "REV_AT_EPOCH": 89025, "BSTAR": 0.0012456389, "MEAN_MOTION_DOT": 0.00010303, "MEAN_MOTION_DDOT": 0}, "tle": {"line1": "1 34079U 97051CN  25349.94026192  .00010303  00000+0  12456-2 0  9997", "line2": "2 34079  86.3777   7.2071 0005243 357.5343  50.0154 14.83615280890251"}}, "geometry": {"type": "Point", "coordinates": [9.78596003618725, 39.34465834479423]}}, {"type": "Feature", "properties": {"norad_id": 34088, "name": "IRIDIUM 33 DEB", "group": "iridium-33-debris", "lat": -66.46270437582612, "lon": -142.80326917262454, "alt_km": 599.98095745719, "timestamp": "2025-12-16T19:34:24.652988+00:00", "meta": {"OBJECT_NAME": "IRIDIUM 33 DEB", "OBJECT_ID": "1997-051CX", "EPOCH": "2025-12-15T20:42:59.185728", "MEAN_MOTION": 14.9153623, "ECCENTRICITY": 0.00061215, "INCLINATION": 86.3851, "RA_OF_ASC_NODE": 29.2892, "ARG_OF_PERICENTER": 165.6591, "MEAN_ANOMALY": 10.478, "EPHEMERIS_TYPE": 0, "CLASSIFICATION_TYPE": "U", "NORAD_CAT_ID": 34088, "ELEMENT_SET_NO": 999, "REV_AT_EPOCH": 88788, "BSTAR": 0.0014745475, "MEAN_MOTION_DOT": 0.00014815, "MEAN_MOTION_DDOT": 0}, "tle": {"line1": "1 34088U 97051CX  25349.86318502  .00014815  00000+0  14745-2 0  9992", "line2": "2 34088  86.3851  29.2892 0006121 165.6591  10.4780 14.91536230887884"}}, "geometry": {"type": "Point", "coordinates": [-142.80326917262454, -66.46270437582612]}}, {"type": "Feature", "properties": {"norad_id": 34091, "name": "IRIDIUM 33 DEB", "group": "iridium-33-debris", "lat": -66.6771359102849, "lon": 56.43339858175253, "alt_km": 607.3314481887501, "timestamp": "2025-12-16T19:34:24.652999+00:00", "meta": {"OBJECT_NAME": "IRIDIUM 33 DEB", "OBJECT_ID": "1997-051DA", "EPOCH": "2025-12-15T11:27:56.316096", "MEAN_MOTION": 14.8204835, "ECCENTRICITY": 0.00334632, "INCLINATION": 86.3419, "RA_OF_ASC_NODE": 65.5797, "ARG_OF_PERICENTER": 283.2585, "MEAN_ANOMALY": 76.4905, "EPHEMERIS_TYPE": 0, "CLASSIFICATION_TYPE": "U", "NORAD_CAT_ID": 34091, "ELEMENT_SET_NO": 999, "REV_AT_EPOCH": 87907, "BSTAR": 0.002992099, "MEAN_MOTION_DOT": 0.00024071, "MEAN_MOTION_DDOT": 0}, "tle": {"line1": "1 34091U 97051DA  25349.47773514  .00024071  00000+0  29921-2 0  9998", "line2": "2 34091  86.3419  65.5797 0033463 283.2585  76.4905 14.82048350879078"}}, "geometry": {"type": "Point", "coordinates": [56.43339858175253, -66.6771359102849]}}, {"type": "Feature", "properties": {"norad_id": 34097, "name": "IRIDIUM 33 DEB", "group": "iridium-33-debris", "lat": -29.1807591352048, "lon": -178.2636961499349, "alt_km": 826.4091762868566, "timestamp": "2025-12-16T19:34:24.653009+00:00", "meta": {"OBJECT_NAME": "IRIDIUM 33 DEB", "OBJECT_ID": "1997-051DG", "EPOCH": "2025-12-15T10:47:49.120512", "MEAN_MOTION": 14.34801497, "ECCENTRICITY": 0.00822859, "INCLINATION": 86.2009, "RA_OF_ASC_NODE": 0.2122, "ARG_OF_PERICENTER": 353.363, "MEAN_ANOMALY": 6.6468, "EPHEMERIS_TYPE": 0, "CLASSIFICATION_TYPE": "U", "NORAD_CAT_ID": 34097, "ELEMENT_SET_NO": 999, "REV_AT_EPOCH": 87158, "BSTAR": 0.0011004394, "MEAN_MOTION_DOT": 3.26e-05, "MEAN_MOTION_DDOT": 0}, "tle": {"line1": "1 34097U 97051DG  25349.44987408  .00003260  00000+0  11004-2 0  9990", "line2": "2 34097  86.2009   0.2122 0082285 353.3630   6.6468 14.34801497871585"}}, "geometry": {"type": "Point", "coordinates": [-178.2636961499349, -29.1807591352048]}}, {"type": "Feature", "properties": {"norad_id": 34145, "name": "IRIDIUM 33 DEB", "group": "iridium-33-debris", "lat": -49.32046956920472, "lon": 155.13355001398605, "alt_km": 791.7065187007947, "timestamp": "2025-12-16T19:34:24.653020+00:00", "meta": {"OBJECT_NAME": "IRIDIUM 33 DEB", "OBJECT_ID": "1997-051DY", "EPOCH": "2025-12-15T22:32:13.316064", "MEAN_MOTION": 14.42312894, "ECCENTRICITY": 0.00557785, "INCLINATION": 86.2114, "RA_OF_ASC_NODE": 331.1023, "ARG_OF_PERICENTER": 83.6538, "MEAN_ANOMALY": 277.1011, "EPHEMERIS_TYPE": 0, "CLASSIFICATION_TYPE": "U", "NORAD_CAT_ID": 34145, "ELEMENT_SET_NO": 999, "REV_AT_EPOCH": 87684, "BSTAR": 0.0008179063, "MEAN_MOTION_DOT": 2.77e-05, "MEAN_MOTION_DDOT": 0}, "tle": {"line1": "1 34145U 97051DY  25349.93904301  .00002770  00000+0  81791-3 0  9995", "line2": "2 34145  86.2114 331.1023 0055778  83.6538 277.1011 14.42312894876849"}}, "geometry": {"type": "Point", "coordinates": [155.13355001398605, -49.32046956920472]}}, {"type": "Feature", "properties": {"norad_id": 34146, "name": "IRIDIUM 33 DEB", "group": "iridium-33-debris", "lat": -34.03230810195144, "lon": -14.51528924757969, "alt_km": 743.666665537994, "timestamp": "2025-12-16T19:34:24.653031+00:00", "meta": {"OBJECT_NAME": "IRIDIUM 33 DEB", "OBJECT_ID": "1997-051DZ", "EPOCH": "2025-12-15T18:01:50.948832", "MEAN_MOTION": 14.49071042, "ECCENTRICITY": 0.00257744, "INCLINATION": 86.2835, "RA_OF_ASC_NODE": 348.4705, "ARG_OF_PERICENTER": 211.0243, "MEAN_ANOMALY": 326.273, "EPHEMERIS_TYPE": 0, "CLASSIFICATION_TYPE": "U", "NORAD_CAT_ID": 34146, "ELEMENT_SET_NO": 999, "REV_AT_EPOCH": 88150, "BSTAR": 0.00065889946, "MEAN_MOTION_DOT": 2.531e-05, "MEAN_MOTION_DDOT": 0}, "tle": {"line1": "1 34146U 97051DZ  25349.75128413  .00002531  00000+0  65890-3 0  9995", "line2": "2 34146  86.2835 348.4705 0025774 211.0243 326.2730 14.49071042881508"}}, "geometry": {"type": "Point", "coordinates": [-14.51528924757969, -34.03230810195144]}}, {"type": "Feature", "properties": {"norad_id": 34159, "name": "IRIDIUM 33 DEB", "group": "iridium-33-debris", "lat": -65.42585549949095, "lon": -125.47355839015877, "alt_km": 754.373171250596, "timestamp": "2025-12-16T19:34:24.653042+00:00", "meta": {"OBJECT_NAME": "IRIDIUM 33 DEB", "OBJECT_ID": "1997-051EN", "EPOCH": "2025-12-15T14:03:07.774560", "MEAN_MOTION": 14.38501261, "ECCENTRICITY": 0.00259753, "INCLINATION": 86.3506, "RA_OF_ASC_NODE": 47.0281, "ARG_OF_PERICENTER": 277.6938, "MEAN_ANOMALY": 82.131, "EPHEMERIS_TYPE": 0, "CLASSIFICATION_TYPE": "U", "NORAD_CAT_ID": 34159, "ELEMENT_SET_NO": 999, "REV_AT_EPOCH": 88000, "BSTAR": 0.00040050586, "MEAN_MOTION_DOT": 1.247e-05, "MEAN_MOTION_DDOT": 0}, "tle": {"line1": "1 34159U 97051EN  25349.58550665  .00001247  00000+0  40051-3 0  9993", "line2": "2 34159  86.3506  47.0281 0025975 277.6938  82.1310 14.38501261880006"}}, "geometry": {"type": "Point", "coordinates": [-125.47355839015877, -65.42585549949095]}}, {"type": "Feature", "properties": {"norad_id": 34350, "name": "IRIDIUM 33 DEB", "group": "iridium-33-debris", "lat": 15.133709641556157, "lon": 2.0341440457657662, "alt_km": 746.4262909922827, "timestamp": "2025-12-16T19:34:24.653053+00:00", "meta": {"OBJECT_NAME": "IRIDIUM 33 DEB", "OBJECT_ID": "1997-051ES", "EPOCH": "2025-12-15T19:24:26.787168", "MEAN_MOTION": 14.45393781, "ECCENTRICITY": 0.00230951, "INCLINATION": 86.3274, "RA_OF_ASC_NODE": 1.4756, "ARG_OF_PERICENTER": 125.7111, "MEAN_ANOMALY": 53.7358, "EPHEMERIS_TYPE": 0, "CLASSIFICATION_TYPE": "U", "NORAD_CAT_ID": 34350, "ELEMENT_SET_NO": 999, "REV_AT_EPOCH": 88337, "BSTAR": 0.00030646416, "MEAN_MOTION_DOT": 1.101e-05, "MEAN_MOTION_DDOT": 0}, "tle": {"line1": "1 34350U 97051ES  25349.80864337  .00001101  00000+0  30646-3 0  9993", "line2": "2 34350  86.3274   1.4756 0023095 125.7111  53.7358 14.45393781883372"}}, "geometry": {"type": "Point", "coordinates": [2.0341440457657662, 15.133709641556157]}}, {"type": "Feature", "properties": {"norad_id": 34366, "name": "IRIDIUM 33 DEB", "group": "iridium-33-debris", "lat": 68.98435134623796, "lon": -141.9698797734957, "alt_km": 690.252253512328, "timestamp": "2025-12-16T19:34:24.653063+00:00", "meta": {"OBJECT_NAME": "IRIDIUM 33 DEB", "OBJECT_ID": "1997-051FJ", "EPOCH": "2025-12-15T05:21:52.451136", "MEAN_MOTION": 14.54081827, "ECCENTRICITY": 0.00226488, "INCLINATION": 86.3701, "RA_OF_ASC_NODE": 48.2333, "ARG_OF_PERICENTER": 131.8237, "MEAN_ANOMALY": 290.4174, "EPHEMERIS_TYPE": 0, "CLASSIFICATION_TYPE": "U", "NORAD_CAT_ID": 34366, "ELEMENT_SET_NO": 999, "REV_AT_EPOCH": 88218, "BSTAR": 0.00070731798, "MEAN_MOTION_DOT": 3.016e-05, "MEAN_MOTION_DDOT": 0}, "tle": {"line1": "1 34366U 97051FJ  25349.22352374  .00003016  00000+0  70732-3 0  9996", "line2": "2 34366  86.3701  48.2333 0022648 131.8237 290.4174 14.54081827882183"}}, "geometry": {"type": "Point", "coordinates": [-141.9698797734957, 68.98435134623796]}}]}